{
  "type": "FeatureCollection",
  "features": [
    {
      "type": "Feature",
      "properties": {
        "norad_id": 66661,
        "name": "SNUGLITE-III",
        "group": "last-30-days",
        "lat": 34.30565293774334,
        "lon": 108.87195068211848,
        "alt_km": 587.7658723427767,
        "timestamp": "2025-12-22T11:33:19.153835+00:00",
        "meta_object_name": "SNUGLITE-III",
        "meta_object_id": "2025-274M",
        "meta_epoch": "2025-12-21T17:12:49.999968",
        "meta_mean_motion": 14.93139357,
        "meta_eccentricity": 0.0013285,
        "meta_inclination": 97.7404,
        "meta_ra_of_asc_node": 282.7951,
        "meta_arg_of_pericenter": 249.0325,
        "meta_mean_anomaly": 110.9473,
        "meta_ephemeris_type": 0,
        "meta_classification_type": "U",
        "meta_norad_cat_id": 66661,
        "meta_element_set_no": 999,
        "meta_rev_at_epoch": 374,
        "meta_bstar": 0.00016291,
        "meta_mean_motion_dot": 1.645e-05,
        "meta_mean_motion_ddot": 0,
        "tle_line1": "1 66661U 25274M   25355.71724537  .00001645  00000+0  16291-3 0  9998",
        "tle_line2": "2 66661  97.7404 282.7951 0013285 249.0325 110.9473 14.93139357  3740"
      },
      "geometry": {
        "type": "Point",
        "coordinates": [
          108.87195068211848,
          34.30565293774334
        ]
      }
    },
    {
      "type": "Feature",
      "properties": {
        "norad_id": 66662,
        "name": "2025-274N",
        "group": "last-30-days",
        "lat": 29.10372359467171,
        "lon": 107.89212754792578,
        "alt_km": 587.5844834316094,
        "timestamp": "2025-12-22T11:33:19.153847+00:00",
        "meta_object_name": "2025-274N",
        "meta_object_id": "2025-274N",
        "meta_epoch": "2025-12-21T18:47:57.458688",
        "meta_mean_motion": 14.93194848,
        "meta_eccentricity": 0.001373,
        "meta_inclination": 97.7407,
        "meta_ra_of_asc_node": 282.8625,
        "meta_arg_of_pericenter": 248.6058,
        "meta_mean_anomaly": 111.3697,
        "meta_ephemeris_type": 0,
        "meta_classification_type": "U",
        "meta_norad_cat_id": 66662,
        "meta_element_set_no": 999,
        "meta_rev_at_epoch": 375,
        "meta_bstar": 0.00015255,
        "meta_mean_motion_dot": 1.539e-05,
        "meta_mean_motion_ddot": 0,
        "tle_line1": "1 66662U 25274N   25355.78330392  .00001539  00000+0  15255-3 0  9999",
        "tle_line2": "2 66662  97.7407 282.8625 0013730 248.6058 111.3697 14.93194848  3756"
      },
      "geometry": {
        "type": "Point",
        "coordinates": [
          107.89212754792578,
          29.10372359467171
        ]
      }
    },
    {
      "type": "Feature",
      "properties": {
        "norad_id": 66663,
        "name": "KSLV-II R/B",
        "group": "last-30-days",
        "lat": -0.46601905838426755,
        "lon": 103.6705767148218,
        "alt_km": 588.247499719485,
        "timestamp": "2025-12-22T11:33:19.153857+00:00",
        "meta_object_name": "KSLV-II R/B",
        "meta_object_id": "2025-274P",
        "meta_epoch": "2025-12-22T01:07:29.294976",
        "meta_mean_motion": 14.97514647,
        "meta_eccentricity": 0.0059492,
        "meta_inclination": 97.7422,
        "meta_ra_of_asc_node": 283.3033,
        "meta_arg_of_pericenter": 286.9981,
        "meta_mean_anomaly": 72.4727,
        "meta_ephemeris_type": 0,
        "meta_classification_type": "U",
        "meta_norad_cat_id": 66663,
        "meta_element_set_no": 999,
        "meta_rev_at_epoch": 380,
        "meta_bstar": 0.0016589,
        "meta_mean_motion_dot": 0.00020039,
        "meta_mean_motion_ddot": 0,
        "tle_line1": "1 66663U 25274P   25356.04686684  .00020039  00000+0  16589-2 0  9994",
        "tle_line2": "2 66663  97.7422 283.3033 0059492 286.9981  72.4727 14.97514647  3802"
      },
      "geometry": {
        "type": "Point",
        "coordinates": [
          103.6705767148218,
          -0.46601905838426755
        ]
      }
    },
    {
      "type": "Feature",
      "properties": {
        "norad_id": 66664,
        "name": "SOYUZ-MS 28",
        "group": "last-30-days",
        "lat": 37.537041524626865,
        "lon": 131.73093440696377,
        "alt_km": 413.77350588753416,
        "timestamp": "2025-12-22T11:33:19.153867+00:00",
        "meta_object_name": "SOYUZ-MS 28",
        "meta_object_id": "2025-275A",
        "meta_epoch": "2025-12-21T16:45:51.816096",
        "meta_mean_motion": 15.49707977,
        "meta_eccentricity": 0.000316,
        "meta_inclination": 51.6324,
        "meta_ra_of_asc_node": 98.1136,
        "meta_arg_of_pericenter": 282.2378,
        "meta_mean_anomaly": 77.8256,
        "meta_ephemeris_type": 0,
        "meta_classification_type": "U",
        "meta_norad_cat_id": 66664,
        "meta_element_set_no": 999,
        "meta_rev_at_epoch": 383,
        "meta_bstar": 0.00019136,
        "meta_mean_motion_dot": 0.0001037,
        "meta_mean_motion_ddot": 0,
        "tle_line1": "1 66664U 25275A   25355.69851639  .00010370  00000+0  19136-3 0  9999",
        "tle_line2": "2 66664  51.6324  98.1136 0003160 282.2378  77.8256 15.49707977  3836"
      },
      "geometry": {
        "type": "Point",
        "coordinates": [
          131.73093440696377,
          37.537041524626865
        ]
      }
    },
    {
      "type": "Feature",
      "properties": {
        "norad_id": 66666,
        "name": "FORMOSAT-8A",
        "group": "last-30-days",
        "lat": -80.97488575982473,
        "lon": -169.61801068552958,
        "alt_km": 572.3438620299748,
        "timestamp": "2025-12-22T11:33:19.153878+00:00",
        "meta_object_name": "FORMOSAT-8A",
        "meta_object_id": "2025-276A",
        "meta_epoch": "2025-12-22T03:58:27.513408",
        "meta_mean_motion": 15.00342498,
        "meta_eccentricity": 0.000381,
        "meta_inclination": 97.658,
        "meta_ra_of_asc_node": 67.9707,
        "meta_arg_of_pericenter": 194.8508,
        "meta_mean_anomaly": 165.2604,
        "meta_ephemeris_type": 0,
        "meta_classification_type": "U",
        "meta_norad_cat_id": 66666,
        "meta_element_set_no": 999,
        "meta_rev_at_epoch": 350,
        "meta_bstar": 0.00045868,
        "meta_mean_motion_dot": 5.698e-05,
        "meta_mean_motion_ddot": 0,
        "tle_line1": "1 66666U 25276A   25356.16559622  .00005698  00000+0  45868-3 0  9990",
        "tle_line2": "2 66666  97.6580  67.9707 0003810 194.8508 165.2604 15.00342498  3508"
      },
      "geometry": {
        "type": "Point",
        "coordinates": [
          -169.61801068552958,
          -80.97488575982473
        ]
      }
    },
    {
      "type": "Feature",
      "properties": {
        "norad_id": 66667,
        "name": "PELICAN-5",
        "group": "last-30-days",
        "lat": -70.29207682797589,
        "lon": 89.48807080892671,
        "alt_km": 519.982512854881,
        "timestamp": "2025-12-22T11:33:19.153888+00:00",
        "meta_object_name": "PELICAN-5",
        "meta_object_id": "2025-276B",
        "meta_epoch": "2025-12-22T02:22:34.325760",
        "meta_mean_motion": 15.17600746,
        "meta_eccentricity": 0.0002035,
        "meta_inclination": 97.4415,
        "meta_ra_of_asc_node": 67.7117,
        "meta_arg_of_pericenter": 215.9708,
        "meta_mean_anomaly": 144.1389,
        "meta_ephemeris_type": 0,
        "meta_classification_type": "U",
        "meta_norad_cat_id": 66667,
        "meta_element_set_no": 999,
        "meta_rev_at_epoch": 354,
        "meta_bstar": 0.00046376,
        "meta_mean_motion_dot": 9.261e-05,
        "meta_mean_motion_ddot": 0,
        "tle_line1": "1 66667U 25276B   25356.09900840  .00009261  00000+0  46376-3 0  9990",
        "tle_line2": "2 66667  97.4415  67.7117 0002035 215.9708 144.1389 15.17600746  3543"
      },
      "geometry": {
        "type": "Point",
        "coordinates": [
          89.48807080892671,
          -70.29207682797589
        ]
      }
    },
    {
      "type": "Feature",
      "properties": {
        "norad_id": 66668,
        "name": "TRANSPORTER-15 C",
        "group": "last-30-days",
        "lat": -26.584190777069516,
        "lon": -115.7309735703931,
        "alt_km": 525.5378335779124,
        "timestamp": "2025-12-22T11:33:19.153898+00:00",
        "meta_object_name": "TRANSPORTER-15 C",
        "meta_object_id": "2025-276C",
        "meta_epoch": "2025-12-22T04:18:27.336384",
        "meta_mean_motion": 15.16031741,
        "meta_eccentricity": 0.0014577,
        "meta_inclination": 97.4277,
        "meta_ra_of_asc_node": 67.7168,
        "meta_arg_of_pericenter": 301.3849,
        "meta_mean_anomaly": 58.5957,
        "meta_ephemeris_type": 0,
        "meta_classification_type": "U",
        "meta_norad_cat_id": 66668,
        "meta_element_set_no": 999,
        "meta_rev_at_epoch": 355,
        "meta_bstar": -0.035248,
        "meta_mean_motion_dot": -0.00632072,
        "meta_mean_motion_ddot": 0,
        "tle_line1": "1 66668U 25276C   25356.17948306 -.00632072  00000+0 -35248-1 0  9997",
        "tle_line2": "2 66668  97.4277  67.7168 0014577 301.3849  58.5957 15.16031741  3558"
      },
      "geometry": {
        "type": "Point",
        "coordinates": [
          -115.7309735703931,
          -26.584190777069516
        ]
      }
    }
  ]
}